NOAA 18                 
1 28654U 05018A   26071.23126895  .00000070  00000+0  60034-4 0  9994
2 28654  98.8152 152.3028 0015237  68.8101 291.4698 14.13711550 72616
NOAA 19                 
1 33591U 09005A   26071.28369280  .00000060  00000+0  55914-4 0  9992
2 33591  98.9602 142.0590 0012805 306.8105  53.1891 14.13457422880799
SUOMI NPP               
1 37849U 11061A   26071.28068778  .00000114  00000+0  74979-4 0  9997
2 37849  98.7871  12.8628 0000577 210.0782 150.0361 14.19544447744698
NOAA 20 (JPSS-1)        
1 43013U 17073A   26071.29537596  .00000104  00000+0  70270-4 0  9995
2 43013  98.7693  11.6566 0001320 133.9480 226.1805 14.19536904430726
