[{"OBJECT_NAME":"NOAA 18","OBJECT_ID":"2005-018A","EPOCH":"2026-03-12T05:33:01.637280","MEAN_MOTION":14.1371155,"ECCENTRICITY":0.00152378,"INCLINATION":98.8152,"RA_OF_ASC_NODE":152.3028,"ARG_OF_PERICENTER":68.8101,"MEAN_ANOMALY":291.4698,"EPHEMERIS_TYPE":0,"CLASSIFICATION_TYPE":"U","NORAD_CAT_ID":28654,"ELEMENT_SET_NO":999,"REV_AT_EPOCH":7261,"BSTAR":6.0034388e-5,"MEAN_MOTION_DOT":7.0e-7,"MEAN_MOTION_DDOT":0},{"OBJECT_NAME":"NOAA 19","OBJECT_ID":"2009-005A","EPOCH":"2026-03-12T06:48:31.057920","MEAN_MOTION":14.13457422,"ECCENTRICITY":0.0012805,"INCLINATION":98.9602,"RA_OF_ASC_NODE":142.059,"ARG_OF_PERICENTER":306.8105,"MEAN_ANOMALY":53.1891,"EPHEMERIS_TYPE":0,"CLASSIFICATION_TYPE":"U","NORAD_CAT_ID":33591,"ELEMENT_SET_NO":999,"REV_AT_EPOCH":88079,"BSTAR":5.5913713e-5,"MEAN_MOTION_DOT":6.0e-7,"MEAN_MOTION_DDOT":0},{"OBJECT_NAME":"SUOMI NPP","OBJECT_ID":"2011-061A","EPOCH":"2026-03-12T06:44:11.424192","MEAN_MOTION":14.19544447,"ECCENTRICITY":5.778e-5,"INCLINATION":98.7871,"RA_OF_ASC_NODE":12.8628,"ARG_OF_PERICENTER":210.0782,"MEAN_ANOMALY":150.0361,"EPHEMERIS_TYPE":0,"CLASSIFICATION_TYPE":"U","NORAD_CAT_ID":37849,"ELEMENT_SET_NO":999,"REV_AT_EPOCH":74469,"BSTAR":7.4978826e-5,"MEAN_MOTION_DOT":1.14e-6,"MEAN_MOTION_DDOT":0},{"OBJECT_NAME":"NOAA 20 (JPSS-1)","OBJECT_ID":"2017-073A","EPOCH":"2026-03-12T07:05:20.482944","MEAN_MOTION":14.19536904,"ECCENTRICITY":0.00013203,"INCLINATION":98.7693,"RA_OF_ASC_NODE":11.6566,"ARG_OF_PERICENTER":133.948,"MEAN_ANOMALY":226.1805,"EPHEMERIS_TYPE":0,"CLASSIFICATION_TYPE":"U","NORAD_CAT_ID":43013,"ELEMENT_SET_NO":999,"REV_AT_EPOCH":43072,"BSTAR":7.0270277e-5,"MEAN_MOTION_DOT":1.04e-6,"MEAN_MOTION_DDOT":0}]
